ICS-EF (ISS DEB)        
1 45265U 98067RJ  20350.01895403  .00003485  00000-0  67014-4 0  9994
2 45265  51.6396 172.1356 0004815 316.7851  43.2760 15.50862833 46180
PROGRESS-MS 14          
1 45595U 20026A   20348.54999068  .00000948  00000-0  25206-4 0  9995
2 45595  51.6445 180.9789 0001783 128.1963 279.5916 15.49180997 36041
G-SAT                   
1 45597U 98067RK  20349.97231378  .00009697  00000-0  15772-3 0  9994
2 45597  51.6390 170.3484 0004046  12.8825 347.2268 15.53375469 35898
QUETZAL-1               
1 45598U 98067RL  20349.79523764  .00013071  00000-0  20759-3 0  9990
2 45598  51.6386 171.4125 0001989  51.2886 308.8282 15.53692841 35799
RED-EYE 2 (MERLOT)      
1 45800U 98067RM  20349.00959224  .00003962  00000-0  74300-4 0  9994
2 45800  51.6403 177.4062 0000754   9.2751 350.8252 15.51169590 27887
RED-EYE 3 (CABERNET)    
1 45809U 98067RN  20349.78320294  .00003649  00000-0  69036-4 0  9999
2 45809  51.6402 173.5730 0000801 343.2207  16.8756 15.51172081 26981
DEMI                    
1 45916U 98067RP  20349.95812097  .00008733  00000-0  14464-3 0  9997
2 45916  51.6397 171.7485 0002100 237.2193 122.8595 15.53013601 24015
TECHEDSAT 10            
1 45917U 98067RQ  20349.22091576  .00083670  00000-0  88549-3 0  9997
2 45917  51.6354 171.3168 0005569 247.0880 112.9527 15.63408356 23905
